{
  "type": "FeatureCollection",
  "features": [
    {
      "type": "Feature",
      "properties": {
        "KEY_CODE": "27120010010",
        "PREF_NAME": "大阪府",
        "CITY_NAME": "大阪市住吉区",
        "S_NAME": "我孫子一丁目"
      },
      "geometry": { "type": "Polygon", "coordinates": [[[135.5, 34.6], [135.51, 34.6], [135.51, 34.61], [135.5, 34.6]]] }
    },
    {
      "type": "Feature",
      "properties": {
        "KEY_CODE": "27121020010",
        "PREF_NAME": "大阪府",
        "CITY_NAME": "大阪市東住吉区",
        "S_NAME": "今林一丁目"
      },
      "geometry": { "type": "Polygon", "coordinates": [[[135.55, 34.63], [135.56, 34.63], [135.56, 34.64], [135.55, 34.63]]] }
    },
    {
      "type": "Feature",
      "properties": {
        "KEY_CODE": "",
        "PREF_NAME": "大阪府",
        "CITY_NAME": "大阪市住吉区",
        "S_NAME": ""
      },
      "geometry": { "type": "Polygon", "coordinates": [[[135.49, 34.59], [135.495, 34.59], [135.495, 34.595], [135.49, 34.59]]] }
    },
    {
      "type": "Feature",
      "properties": {
        "KEY_CODE": "27120030010",
        "PREF_NAME": "大阪府",
        "CITY_NAME": "大阪市住吉区",
        "S_NAME": "杉本三丁目"
      },
      "geometry": { "type": "Polygon", "coordinates": [[[135.52, 34.58], [135.525, 34.58], [135.525, 34.585], [135.52, 34.58]]] }
    }
  ]
}
