{
  "type": "FeatureCollection",
  "name": "N03-2026_synthetic_fixture",
  "_readme": "REAL_N03_VALIDATION 2026-08-27で確認した実N03スキーマに合わせている: N03_004=市区町村名(区名を含まない)、N03_005=行政区名、N03_007=5桁全国地方公共団体コード。平野区は実データと同様に複数Featureに分割される例を含む。",
  "features": [
    {
      "type": "Feature",
      "properties": { "N03_001": "大阪府", "N03_004": "大阪市", "N03_005": "住吉区", "N03_007": "27120" },
      "geometry": { "type": "Polygon", "coordinates": [[[135.49, 34.60], [135.53, 34.60], [135.53, 34.62], [135.49, 34.62], [135.49, 34.60]]] }
    },
    {
      "type": "Feature",
      "properties": { "N03_001": "大阪府", "N03_004": "大阪市", "N03_005": "東住吉区", "N03_007": "27121" },
      "geometry": { "type": "Polygon", "coordinates": [[[135.53, 34.62], [135.57, 34.62], [135.57, 34.64], [135.53, 34.64], [135.53, 34.62]]] }
    },
    {
      "type": "Feature",
      "properties": { "N03_001": "大阪府", "N03_004": "大阪市", "N03_005": "平野区", "N03_007": "27126" },
      "geometry": { "type": "Polygon", "coordinates": [[[135.55, 34.60], [135.57, 34.60], [135.57, 34.62], [135.55, 34.62], [135.55, 34.60]]] }
    },
    {
      "type": "Feature",
      "properties": { "N03_001": "大阪府", "N03_004": "大阪市", "N03_005": "平野区", "N03_007": "27126" },
      "geometry": { "type": "MultiPolygon", "coordinates": [[[[135.57, 34.60], [135.59, 34.60], [135.59, 34.62], [135.57, 34.62], [135.57, 34.60]]]] }
    },
    {
      "type": "Feature",
      "properties": { "N03_001": "京都府", "N03_004": "京都市", "N03_005": "中京区", "N03_007": "26104" },
      "geometry": { "type": "Polygon", "coordinates": [[[135.75, 35.00], [135.76, 35.00], [135.76, 35.01], [135.75, 35.00]]] }
    },
    {
      "type": "Feature",
      "properties": { "N03_001": "大阪府", "N03_004": "堺市", "N03_005": "堺区", "N03_007": "27141" },
      "geometry": { "type": "Polygon", "coordinates": [[[135.47, 34.57], [135.48, 34.57], [135.48, 34.58], [135.47, 34.57]]] }
    }
  ]
}
